STARLINK-3625           
1 51777U 22017K   22080.91667824  .00029655  00000+0  21544-3 0  9999
2 51777  53.2178  23.4820 0001013  67.5934 299.2986 15.73148282  5060
STARLINK-3615           
1 51778U 22017L   22081.25001157  .00039367  00000+0  28372-3 0  9996
2 51778  53.2208  21.4853 0001113  60.3026 209.0158 15.73189987  5116
STARLINK-3611           
1 51779U 22017M   22081.25001157  .00094690  00000+0  67353-3 0  9999
2 51779  53.2175  21.8310 0001346  54.6197  43.0926 15.73129490  5106
STARLINK-3617           
1 51780U 22017N   22080.91667824 -.00008470  00000+0 -55950-4 0  9996
2 51780  53.2182  23.4738 0001425  79.0465 292.3162 15.73217032  3698
STARLINK-3580           
1 51781U 22017P   22080.91667824  .00011774  00000+0  88356-4 0  9992
2 51781  53.2191  23.4772 0001224  70.2457 299.2291 15.73155176  5060
STARLINK-3616           
1 51782U 22017Q   22080.91667824 -.00719810  00000+0 -66091-2 0  9991
2 51782  53.2176  23.4838 0001158  58.5762 295.5384 15.69199377  3696
STARLINK-3628           
1 51783U 22017R   22081.25001157  .00095274  00000+0  67740-3 0  9993
2 51783  53.2179  21.8272 0001129  67.4343  32.1950 15.73137093  5100
STARLINK-3632           
1 51784U 22017S   22080.91667824 -.00719735  00000+0 -65734-2 0  9992
2 51784  53.2176  23.4831 0001104  63.5252 292.4152 15.69327129  3699
STARLINK-3646           
1 51785U 22017T   22080.91667824  .00030804  00000+0  22346-3 0  9997
2 51785  53.2180  23.4718 0001181  70.6447 301.4116 15.73161209  5108
STARLINK-3638           
1 51786U 22017U   22080.91667824 -.00719915  00000+0 -65054-2 0  9999
2 51786  53.2176  23.4815 0001131  60.9614 298.5154 15.69582819  3694
STARLINK-3619           
1 51787U 22017V   22080.91667824 -.00720072  00000+0 -66464-2 0  9992
2 51787  53.2175  23.4843 0001402  41.8523 310.3980 15.69071682  3694
STARLINK-3641           
1 51788U 22017W   22080.91667824 -.00720016  00000+0 -64029-2 0  9996
2 51788  53.2176  23.4785 0001121  63.7962 300.6972 15.69966270  5050
STARLINK-3639           
1 51789U 22017X   22080.91667824 -.00719886  00000+0 -65399-2 0  9991
2 51789  53.2176  23.4823 0001126  59.7703 297.9574 15.69455026  5066
STARLINK-3631           
1 51790U 22017Y   22080.91667824 -.00719680  00000+0 -63657-2 0  9990
2 51790  53.2176  23.4774 0001021  84.8408 281.2481 15.70093908  3697
STARLINK-3602           
1 51791U 22017Z   22080.91667824 -.00719994  00000+0 -64715-2 0  9995
2 51791  53.2176  23.4805 0001136  60.0682 301.1192 15.69710687  5051
STARLINK-3626           
1 51792U 22017AA  22081.25001157 -.00712869  00000+0 -63687-2 0  9996
2 51792  53.2176  21.8363 0001116  67.8185  26.5355 15.69835173  5152
STARLINK-3633           
1 51793U 22017AB  22080.91667824 -.00719885  00000+0 -64361-2 0  9993
2 51793  53.2176  23.4795 0001063  70.7712 292.0884 15.69838433  5104
STARLINK-3573           
1 51794U 22017AC  22080.91667824 -.00719867  00000+0 -62321-2 0  9998
2 51794  53.2177  23.4719 0001020  82.8699 289.2165 15.70605191  3690
STARLINK-3586           
1 51795U 22017AD  22080.91667824 -.00720082  00000+0 -62676-2 0  9993
2 51795  53.2176  23.4733 0001087  65.1063 305.5383 15.70477517  3691
STARLINK-3630           
1 51796U 22017AE  22081.16667824 -.00720470  00000+0 -68869-2 0  9993
2 51796  53.2174  22.2352 0001098  71.1149 258.3787 15.68230103  5092
STARLINK-3627           
1 51797U 22017AF  22081.16667824 -.00720560  00000+0 -64424-2 0  9997
2 51797  53.2176  22.2474 0001056  79.8287 261.6501 15.69839475  5147
STARLINK-3634           
1 51798U 22017AG  22081.16667824 -.00720210  00000+0 -68480-2 0  9996
2 51798  53.2175  22.2348 0001125  67.8287 263.7823 15.68357636  5144
STARLINK-3637           
1 51799U 22017AH  22080.91667824 -.00720266  00000+0 -62020-2 0  9994
2 51799  53.2177  23.4703 0001172  57.0960 316.3937 15.70733200  3693
STARLINK-3600           
1 51800U 22017AJ  22080.91667824 -.00719391  00000+0 -66709-2 0  9992
2 51800  53.2176  23.4621 0001021  78.8868 283.7725 15.68961223  3692
STARLINK-3592           
1 51801U 22017AK  22081.16667824 -.00720047  00000+0 -69190-2 0  9998
2 51801  53.2174  22.2354 0001073  76.2726 251.0654 15.68102021  5103
STARLINK-3557           
1 51802U 22017AL  22081.16667824 -.00720497  00000+0 -64636-2 0  9998
2 51802  53.2176  22.2340 0001030  89.2436 258.6128 15.69758861  5093
STARLINK-3544           
1 51803U 22017AM  22080.91667824 -.00719486  00000+0 -66977-2 0  9997
2 51803  53.2176  23.4627 0001066  77.0936 283.9821 15.68867766  3693
STARLINK-3601           
1 51804U 22017AN  22080.91667824  .00011168  00000+0  83928-4 0  9995
2 51804  53.2211  23.4286 0001269  72.1704 323.6948 15.73186575  3699
STARLINK-3605           
1 51805U 22017AP  22081.16667824  .00043519  00000+0  31334-3 0  9992
2 51805  53.2183  22.2111 0000992  55.9197 305.5624 15.73166026  5140
STARLINK-3581           
1 51806U 22017AQ  22081.16667824 -.00043217  00000+0 -30530-3 0  9997
2 51806  53.2190  22.2054 0001190  67.7303 296.9559 15.73184031  5096
STARLINK-3606           
1 51807U 22017AR  22080.91667824 -.00012674  00000+0 -86142-4 0  9994
2 51807  53.2190  23.4437 0001375  83.0622 302.9867 15.73166662  3699
STARLINK-3609           
1 51808U 22017AS  22081.16667824 -.00041226  00000+0 -29081-3 0  9996
2 51808  53.2192  22.2027 0001230  79.6820 286.2340 15.73195917  5096
STARLINK-3607           
1 51809U 22017AT  22081.25001157  .00095359  00000+0  67839-3 0  9995
2 51809  53.2187  21.7953 0001049  69.1456  46.4607 15.73123448  5104
STARLINK-3613           
1 51810U 22017AU  22081.16667824 -.00046804  00000+0 -33087-3 0  9997
2 51810  53.2190  22.2000 0001144  51.7453 315.4547 15.73203894  5093
STARLINK-3569           
1 51811U 22017AV  22080.91667824 -.00005308  00000+0 -33475-4 0  9996
2 51811  53.2188  23.4386 0001195  89.7025 298.9248 15.73167739  3697
STARLINK-3610           
1 51812U 22017AW  22080.91667824  .00024121  00000+0  17637-3 0  9990
2 51812  53.2179  23.4341 0000664 104.4509 286.7294 15.73121321  3694
STARLINK-3552           
1 51813U 22017AX  22081.16667824  .00048131  00000+0  34618-3 0  9994
2 51813  53.2187  22.2009 0000963  86.5115 280.0430 15.73146585  5091
STARLINK-3599           
1 51814U 22017AY  22080.91667824  .00028516  00000+0  20725-3 0  9996
2 51814  53.2181  23.4320 0000909  91.1085 301.4058 15.73160787  3691
STARLINK-3604           
1 51815U 22017AZ  22081.16667824  .00049301  00000+0  35460-3 0  9992
2 51815  53.2185  22.1967 0001174  61.7969 306.6994 15.73135998  5096
STARLINK-3603           
1 51816U 22017BA  22081.16667824 -.00051384  00000+0 -36401-3 0  9995
2 51816  53.2191  22.1952 0001258  81.9637 287.8215 15.73195409  5142
STARLINK-3596           
1 51817U 22017BB  22081.12962509 -.00067474  00000+0 -27253-3 0  9992
2 51817  53.2217  20.4982 0007641 274.0484  85.9668 15.85538085  5113
FALCON 9 DEB            
1 51818U 22017BC  22080.87969048  .00262379  38571-4  61187-3 0  9991
2 51818  53.2315  21.0651 0003301 344.5936  15.4993 15.96585949  3858
FALCON 9 DEB            
1 51819U 22017BD  22081.11701271  .00313759  51656-4  65735-3 0  9993
2 51819  53.2278  19.6882 0002408 278.9202  81.1557 15.98484245  3898
FALCON 9 DEB            
1 51820U 22017BE  22080.53652986  .00287377  45513-4  56813-3 0  9996
2 51820  53.2246  22.4469 0005896 303.2417  56.8049 15.99497141  3808
FALCON 9 DEB            
1 51821U 22017BF  22081.09565190  .00328806  56670-4  63252-3 0  9993
2 51821  53.2210  19.5271 0005498 281.0876  78.9537 15.99955710  3895
L-SAR 01B               
1 51822U 22018A   22081.15586700 -.00000092  00000+0 -41021-5 0  9991
2 51822  97.8099  89.7694 0001682  83.1767 276.9647 14.88413042  3441
CZ-4C R/B               
1 51823U 22018B   22080.94301878  .00005356  00000+0  19941-3 0  9999
2 51823  97.8626  90.8949 0131774 322.0026  37.1967 15.20126360  3491
2022-019A               
1 51824U 22019A   22081.20238715  .00002576  00000+0  16767-3 0  9994
2 51824  97.5191 157.5312 0020728 186.8734 257.7878 15.08668056  3488
2022-019B               
1 51825U 22019B   22081.19849220  .00002088  00000+0  13589-3 0  9999
2 51825  97.5183 157.5318 0018831 182.6268 261.9339 15.08910631  3471
2022-019C               
1 51826U 22019C   22081.19558069  .00002669  00000+0  17165-3 0  9997
2 51826  97.5171 157.5314 0018073 183.8678 261.4806 15.09129576  3476
2022-019D               
1 51827U 22019D   22081.19431524  .00001893  00000+0  12279-3 0  9993
2 51827  97.5188 157.5389 0016734 183.2711 260.9533 15.09178211  3472
2022-019E               
1 51828U 22019E   22081.19380552  .00002596  00000+0  16658-3 0  9994
2 51828  97.5186 157.5390 0017664 185.1709 259.1992 15.09232745  3476
2022-019F               
1 51829U 22019F   22080.84551604  .00003375  00000+0  21472-3 0  9990
2 51829  97.5215 157.2146 0017322 187.3080 172.7899 15.09347575  3422
2022-019G               
1 51830U 22019G   22080.84550261  .00003180  00000+0  20254-3 0  9991
2 51830  97.5153 157.1913 0017897 187.3817 172.7151 15.09346345  3426
2022-019H               
1 51831U 22019H   22081.19217072  .00002369  00000+0  15192-3 0  9994
2 51831  97.5191 157.5391 0017830 193.5500 251.4065 15.09341266  3479
2022-019J               
1 51832U 22019J   22081.19192212  .00001711  00000+0  11082-3 0  9997
2 51832  97.5179 157.5387 0018303 191.7099 252.5867 15.09338015  3470
2022-019K               
1 51833U 22019K   22081.12251876  .00002947  00000+0  18640-3 0  9992
2 51833  97.5154 157.4759 0015855 189.2052 264.8628 15.09690111  3464
2022-019L               
1 51834U 22019L   22081.12136411  .00002255  00000+0  14359-3 0  9995
2 51834  97.5188 157.4908 0016602 191.6467 255.9174 15.09667647  3461
2022-019M               
1 51835U 22019M   22081.18705848  .00002302  00000+0  14649-3 0  9993
2 51835  97.5191 157.5447 0016428 191.6569 253.2683 15.09675719  3470
